[{"OBJECT_NAME":"HULIANWANG DIGUI-113","OBJECT_ID":"2025-285J","EPOCH":"2026-03-04T11:01:45.734304","MEAN_MOTION":13.2933122,"ECCENTRICITY":4.0e-6,"INCLINATION":50.0097,"RA_OF_ASC_NODE":161.2718,"ARG_OF_PERICENTER":329.7035,"MEAN_ANOMALY":30.3835,"EPHEMERIS_TYPE":0,"CLASSIFICATION_TYPE":"U","NORAD_CAT_ID":66923,"ELEMENT_SET_NO":999,"REV_AT_EPOCH":1213,"BSTAR":-0.00018555,"MEAN_MOTION_DOT":-2.1e-6,"MEAN_MOTION_DDOT":0},{"OBJECT_NAME":"HULIANWANG DIGUI-114","OBJECT_ID":"2025-287A","EPOCH":"2026-03-04T12:11:12.980832","MEAN_MOTION":13.24415655,"ECCENTRICITY":0.0001979,"INCLINATION":86.4976,"RA_OF_ASC_NODE":317.7601,"ARG_OF_PERICENTER":80.6772,"MEAN_ANOMALY":279.4586,"EPHEMERIS_TYPE":0,"CLASSIFICATION_TYPE":"U","NORAD_CAT_ID":66953,"ELEMENT_SET_NO":999,"REV_AT_EPOCH":1148,"BSTAR":0.0001832,"MEAN_MOTION_DOT":9.3e-7,"MEAN_MOTION_DDOT":0},{"OBJECT_NAME":"HULIANWANG DIGUI-115","OBJECT_ID":"2025-287B","EPOCH":"2026-03-04T12:00:18.755712","MEAN_MOTION":13.24415733,"ECCENTRICITY":0.0002056,"INCLINATION":86.4992,"RA_OF_ASC_NODE":317.7716,"ARG_OF_PERICENTER":80.2373,"MEAN_ANOMALY":279.8994,"EPHEMERIS_TYPE":0,"CLASSIFICATION_TYPE":"U","NORAD_CAT_ID":66954,"ELEMENT_SET_NO":999,"REV_AT_EPOCH":1148,"BSTAR":0.00020567,"MEAN_MOTION_DOT":1.03e-6,"MEAN_MOTION_DDOT":0},{"OBJECT_NAME":"HULIANWANG DIGUI-116","OBJECT_ID":"2025-287C","EPOCH":"2026-03-04T11:49:26.721696","MEAN_MOTION":13.24415801,"ECCENTRICITY":0.0002062,"INCLINATION":86.4931,"RA_OF_ASC_NODE":317.7111,"ARG_OF_PERICENTER":80.3565,"MEAN_ANOMALY":279.7802,"EPHEMERIS_TYPE":0,"CLASSIFICATION_TYPE":"U","NORAD_CAT_ID":66955,"ELEMENT_SET_NO":999,"REV_AT_EPOCH":1148,"BSTAR":0.00021096,"MEAN_MOTION_DOT":1.05e-6,"MEAN_MOTION_DDOT":0},{"OBJECT_NAME":"HULIANWANG DIGUI-117","OBJECT_ID":"2025-287D","EPOCH":"2026-03-04T11:38:37.323744","MEAN_MOTION":13.24413917,"ECCENTRICITY":0.0001327,"INCLINATION":86.4992,"RA_OF_ASC_NODE":317.7648,"ARG_OF_PERICENTER":22.2358,"MEAN_ANOMALY":337.8833,"EPHEMERIS_TYPE":0,"CLASSIFICATION_TYPE":"U","NORAD_CAT_ID":66956,"ELEMENT_SET_NO":999,"REV_AT_EPOCH":1148,"BSTAR":0.00019672,"MEAN_MOTION_DOT":9.9e-7,"MEAN_MOTION_DDOT":0},{"OBJECT_NAME":"HULIANWANG DIGUI-118","OBJECT_ID":"2025-287E","EPOCH":"2026-03-04T11:27:43.249824","MEAN_MOTION":13.24415236,"ECCENTRICITY":0.0002041,"INCLINATION":86.4968,"RA_OF_ASC_NODE":317.739,"ARG_OF_PERICENTER":80.019,"MEAN_ANOMALY":280.1175,"EPHEMERIS_TYPE":0,"CLASSIFICATION_TYPE":"U","NORAD_CAT_ID":66957,"ELEMENT_SET_NO":999,"REV_AT_EPOCH":1148,"BSTAR":0.00019244,"MEAN_MOTION_DOT":9.7e-7,"MEAN_MOTION_DDOT":0},{"OBJECT_NAME":"HULIANWANG DIGUI-119","OBJECT_ID":"2025-295A","EPOCH":"2026-03-03T01:44:58.227360","MEAN_MOTION":13.51029834,"ECCENTRICITY":6.09e-5,"INCLINATION":50.0099,"RA_OF_ASC_NODE":47.5635,"ARG_OF_PERICENTER":106.8761,"MEAN_ANOMALY":253.2187,"EPHEMERIS_TYPE":0,"CLASSIFICATION_TYPE":"U","NORAD_CAT_ID":67059,"ELEMENT_SET_NO":999,"REV_AT_EPOCH":1136,"BSTAR":0.00010846,"MEAN_MOTION_DOT":-6.1e-7,"MEAN_MOTION_DDOT":0},{"OBJECT_NAME":"HULIANWANG DIGUI-120","OBJECT_ID":"2025-295B","EPOCH":"2026-03-03T19:11:55.421664","MEAN_MOTION":13.50760701,"ECCENTRICITY":0.00010899,"INCLINATION":50.0053,"RA_OF_ASC_NODE":44.769,"ARG_OF_PERICENTER":322.3204,"MEAN_ANOMALY":37.7601,"EPHEMERIS_TYPE":0,"CLASSIFICATION_TYPE":"U","NORAD_CAT_ID":67060,"ELEMENT_SET_NO":999,"REV_AT_EPOCH":1146,"BSTAR":0.00010823522,"MEAN_MOTION_DOT":-6.2e-7,"MEAN_MOTION_DDOT":0},{"OBJECT_NAME":"HULIANWANG DIGUI-121","OBJECT_ID":"2025-295C","EPOCH":"2026-03-04T04:14:38.204448","MEAN_MOTION":13.49700373,"ECCENTRICITY":7.55e-5,"INCLINATION":50.0101,"RA_OF_ASC_NODE":43.3832,"ARG_OF_PERICENTER":248.9318,"MEAN_ANOMALY":111.1482,"EPHEMERIS_TYPE":0,"CLASSIFICATION_TYPE":"U","NORAD_CAT_ID":67061,"ELEMENT_SET_NO":999,"REV_AT_EPOCH":1151,"BSTAR":0.00011183,"MEAN_MOTION_DOT":-6.0e-7,"MEAN_MOTION_DDOT":0},{"OBJECT_NAME":"HULIANWANG DIGUI-122","OBJECT_ID":"2025-295D","EPOCH":"2026-03-04T00:21:38.401920","MEAN_MOTION":13.50482229,"ECCENTRICITY":0.0014279,"INCLINATION":50.0136,"RA_OF_ASC_NODE":43.7171,"ARG_OF_PERICENTER":184.5559,"MEAN_ANOMALY":175.5195,"EPHEMERIS_TYPE":0,"CLASSIFICATION_TYPE":"U","NORAD_CAT_ID":67062,"ELEMENT_SET_NO":999,"REV_AT_EPOCH":1149,"BSTAR":0.00010594,"MEAN_MOTION_DOT":-6.3e-7,"MEAN_MOTION_DDOT":0},{"OBJECT_NAME":"HULIANWANG DIGUI-123","OBJECT_ID":"2025-295E","EPOCH":"2026-03-03T04:39:39.508992","MEAN_MOTION":13.51163893,"ECCENTRICITY":7.42e-5,"INCLINATION":50.0058,"RA_OF_ASC_NODE":46.9026,"ARG_OF_PERICENTER":273.8979,"MEAN_ANOMALY":86.1818,"EPHEMERIS_TYPE":0,"CLASSIFICATION_TYPE":"U","NORAD_CAT_ID":67063,"ELEMENT_SET_NO":999,"REV_AT_EPOCH":1138,"BSTAR":0.00013716,"MEAN_MOTION_DOT":-4.2e-7,"MEAN_MOTION_DDOT":0},{"OBJECT_NAME":"HULIANWANG DIGUI-124","OBJECT_ID":"2025-295F","EPOCH":"2026-03-03T20:29:47.961312","MEAN_MOTION":13.51154708,"ECCENTRICITY":6.34e-5,"INCLINATION":50.0011,"RA_OF_ASC_NODE":44.349,"ARG_OF_PERICENTER":348.9504,"MEAN_ANOMALY":11.1363,"EPHEMERIS_TYPE":0,"CLASSIFICATION_TYPE":"U","NORAD_CAT_ID":67064,"ELEMENT_SET_NO":999,"REV_AT_EPOCH":1147,"BSTAR":0.00011422,"MEAN_MOTION_DOT":-5.7e-7,"MEAN_MOTION_DDOT":0},{"OBJECT_NAME":"HULIANWANG DIGUI-125","OBJECT_ID":"2025-295G","EPOCH":"2026-03-03T20:20:19.764672","MEAN_MOTION":13.51200294,"ECCENTRICITY":0.0001264,"INCLINATION":49.9987,"RA_OF_ASC_NODE":44.3079,"ARG_OF_PERICENTER":15.7402,"MEAN_ANOMALY":344.3519,"EPHEMERIS_TYPE":0,"CLASSIFICATION_TYPE":"U","NORAD_CAT_ID":67065,"ELEMENT_SET_NO":999,"REV_AT_EPOCH":1147,"BSTAR":0.00011281,"MEAN_MOTION_DOT":-5.8e-7,"MEAN_MOTION_DDOT":0},{"OBJECT_NAME":"HULIANWANG DIGUI-126","OBJECT_ID":"2025-295H","EPOCH":"2026-03-03T07:44:21.704352","MEAN_MOTION":13.51245278,"ECCENTRICITY":0.0001436,"INCLINATION":49.9966,"RA_OF_ASC_NODE":46.1982,"ARG_OF_PERICENTER":46.9301,"MEAN_ANOMALY":313.17,"EPHEMERIS_TYPE":0,"CLASSIFICATION_TYPE":"U","NORAD_CAT_ID":67066,"ELEMENT_SET_NO":999,"REV_AT_EPOCH":1140,"BSTAR":7.9664e-5,"MEAN_MOTION_DOT":-8.0e-7,"MEAN_MOTION_DDOT":0},{"OBJECT_NAME":"HULIANWANG DIGUI-127","OBJECT_ID":"2025-295J","EPOCH":"2026-03-04T01:14:23.316864","MEAN_MOTION":13.50551855,"ECCENTRICITY":9.01e-5,"INCLINATION":50.0077,"RA_OF_ASC_NODE":43.3946,"ARG_OF_PERICENTER":23.0313,"MEAN_ANOMALY":337.0609,"EPHEMERIS_TYPE":0,"CLASSIFICATION_TYPE":"U","NORAD_CAT_ID":67067,"ELEMENT_SET_NO":999,"REV_AT_EPOCH":1150,"BSTAR":-0.00030218,"MEAN_MOTION_DOT":-3.26e-6,"MEAN_MOTION_DDOT":0},{"OBJECT_NAME":"HULIANWANG DIGUI-128","OBJECT_ID":"2025-311A","EPOCH":"2026-03-03T08:20:00.446496","MEAN_MOTION":13.35891953,"ECCENTRICITY":0.0002353,"INCLINATION":50.0101,"RA_OF_ASC_NODE":135.2234,"ARG_OF_PERICENTER":353.5774,"MEAN_ANOMALY":6.5071,"EPHEMERIS_TYPE":0,"CLASSIFICATION_TYPE":"U","NORAD_CAT_ID":67236,"ELEMENT_SET_NO":999,"REV_AT_EPOCH":926,"BSTAR":0.00012954,"MEAN_MOTION_DOT":-6.0e-7,"MEAN_MOTION_DDOT":0}]
